CCSDS_OMM_VERS = 2.0
CREATION_DATE  = 
ORIGINATOR     = 

OBJECT_NAME    = PROGRESS-MS 32
OBJECT_ID      = 2025-204A
CENTER_NAME    = EARTH
REF_FRAME      = TEME
TIME_SYSTEM    = UTC
MEAN_ELEMENT_THEORY = SGP/SGP4

EPOCH          = 2025-11-10T19:21:41.474592
MEAN_MOTION    = 15.49512626
ECCENTRICITY   = .00041371
INCLINATION    = 51.6337
RA_OF_ASC_NODE = 300.5531
ARG_OF_PERICENTER = 56.1394
MEAN_ANOMALY   = 303.9988

EPHEMERIS_TYPE = 0
CLASSIFICATION_TYPE = U
NORAD_CAT_ID   = 65586
ELEMENT_SET_NO = 999
REV_AT_EPOCH   = 27
BSTAR          = .20668468E-3
MEAN_MOTION_DOT = .11159E-3
MEAN_MOTION_DDOT = 0

CCSDS_OMM_VERS = 2.0
CREATION_DATE  = 
ORIGINATOR     = 

OBJECT_NAME    = CYGNUS NG-23
OBJECT_ID      = 2025-208A
CENTER_NAME    = EARTH
REF_FRAME      = TEME
TIME_SYSTEM    = UTC
MEAN_ELEMENT_THEORY = SGP/SGP4

EPOCH          = 2025-11-10T19:21:41.474592
MEAN_MOTION    = 15.49512626
ECCENTRICITY   = .00041371
INCLINATION    = 51.6337
RA_OF_ASC_NODE = 300.5531
ARG_OF_PERICENTER = 56.1394
MEAN_ANOMALY   = 303.9988

EPHEMERIS_TYPE = 0
CLASSIFICATION_TYPE = U
NORAD_CAT_ID   = 65616
ELEMENT_SET_NO = 999
REV_AT_EPOCH   = 22
BSTAR          = .20668468E-3
MEAN_MOTION_DOT = .11159E-3
MEAN_MOTION_DDOT = 0

CCSDS_OMM_VERS = 2.0
CREATION_DATE  = 
ORIGINATOR     = 

OBJECT_NAME    = DRAGONFLY
OBJECT_ID      = 1998-067XH
CENTER_NAME    = EARTH
REF_FRAME      = TEME
TIME_SYSTEM    = UTC
MEAN_ELEMENT_THEORY = SGP/SGP4

EPOCH          = 2025-11-10T04:52:41.525760
MEAN_MOTION    = 15.61642778
ECCENTRICITY   = .00044724
INCLINATION    = 51.6309
RA_OF_ASC_NODE = 301.0270
ARG_OF_PERICENTER = 103.5931
MEAN_ANOMALY   = 256.5562

EPHEMERIS_TYPE = 0
CLASSIFICATION_TYPE = U
NORAD_CAT_ID   = 65729
ELEMENT_SET_NO = 999
REV_AT_EPOCH   = 806
BSTAR          = .14111069E-2
MEAN_MOTION_DOT = .125354E-2
MEAN_MOTION_DDOT = 0

CCSDS_OMM_VERS = 2.0
CREATION_DATE  = 
ORIGINATOR     = 

OBJECT_NAME    = 1998-067XJ
OBJECT_ID      = 1998-067XJ
CENTER_NAME    = EARTH
REF_FRAME      = TEME
TIME_SYSTEM    = UTC
MEAN_ELEMENT_THEORY = SGP/SGP4

EPOCH          = 2025-11-10T08:57:27.543744
MEAN_MOTION    = 15.73579673
ECCENTRICITY   = .00112051
INCLINATION    = 51.6266
RA_OF_ASC_NODE = 298.3998
ARG_OF_PERICENTER = 88.9668
MEAN_ANOMALY   = 271.2615

EPHEMERIS_TYPE = 0
CLASSIFICATION_TYPE = U
NORAD_CAT_ID   = 65730
ELEMENT_SET_NO = 999
REV_AT_EPOCH   = 811
BSTAR          = .26807937E-2
MEAN_MOTION_DOT = .402379E-2
MEAN_MOTION_DDOT = 0

CCSDS_OMM_VERS = 2.0
CREATION_DATE  = 
ORIGINATOR     = 

OBJECT_NAME    = 1998-067XK
OBJECT_ID      = 1998-067XK
CENTER_NAME    = EARTH
REF_FRAME      = TEME
TIME_SYSTEM    = UTC
MEAN_ELEMENT_THEORY = SGP/SGP4

EPOCH          = 2025-11-10T08:50:35.183328
MEAN_MOTION    = 15.59100647
ECCENTRICITY   = .00054134
INCLINATION    = 51.6323
RA_OF_ASC_NODE = 300.6315
ARG_OF_PERICENTER = 81.8252
MEAN_ANOMALY   = 278.3355

EPHEMERIS_TYPE = 0
CLASSIFICATION_TYPE = U
NORAD_CAT_ID   = 65731
ELEMENT_SET_NO = 999
REV_AT_EPOCH   = 808
BSTAR          = .11217133E-2
MEAN_MOTION_DOT = .89887E-3
MEAN_MOTION_DDOT = 0

CCSDS_OMM_VERS = 2.0
CREATION_DATE  = 
ORIGINATOR     = 

OBJECT_NAME    = RSP-03
OBJECT_ID      = 1998-067XL
CENTER_NAME    = EARTH
REF_FRAME      = TEME
TIME_SYSTEM    = UTC
MEAN_ELEMENT_THEORY = SGP/SGP4

EPOCH          = 2025-11-10T16:05:33.792864
MEAN_MOTION    = 15.60407504
ECCENTRICITY   = .00062693
INCLINATION    = 51.6308
RA_OF_ASC_NODE = 298.8977
ARG_OF_PERICENTER = 83.6798
MEAN_ANOMALY   = 276.4909

EPHEMERIS_TYPE = 0
CLASSIFICATION_TYPE = U
NORAD_CAT_ID   = 65732
ELEMENT_SET_NO = 999
REV_AT_EPOCH   = 814
BSTAR          = .13043293E-2
MEAN_MOTION_DOT = .110268E-2
MEAN_MOTION_DDOT = 0

CCSDS_OMM_VERS = 2.0
CREATION_DATE  = 
ORIGINATOR     = 

OBJECT_NAME    = GHS-01
OBJECT_ID      = 1998-067XM
CENTER_NAME    = EARTH
REF_FRAME      = TEME
TIME_SYSTEM    = UTC
MEAN_ELEMENT_THEORY = SGP/SGP4

EPOCH          = 2025-11-10T04:34:23.740320
MEAN_MOTION    = 15.62569682
ECCENTRICITY   = .00049109
INCLINATION    = 51.6314
RA_OF_ASC_NODE = 300.9445
ARG_OF_PERICENTER = 100.8463
MEAN_ANOMALY   = 259.3084

EPHEMERIS_TYPE = 0
CLASSIFICATION_TYPE = U
NORAD_CAT_ID   = 65733
ELEMENT_SET_NO = 999
REV_AT_EPOCH   = 807
BSTAR          = .15479616E-2
MEAN_MOTION_DOT = .142942E-2
MEAN_MOTION_DDOT = 0

CCSDS_OMM_VERS = 2.0
CREATION_DATE  = 
ORIGINATOR     = 

OBJECT_NAME    = YOTSUBA-KULOVER
OBJECT_ID      = 1998-067XN
CENTER_NAME    = EARTH
REF_FRAME      = TEME
TIME_SYSTEM    = UTC
MEAN_ELEMENT_THEORY = SGP/SGP4

EPOCH          = 2025-11-10T08:42:02.638656
MEAN_MOTION    = 15.54390263
ECCENTRICITY   = .0002626
INCLINATION    = 51.6325
RA_OF_ASC_NODE = 302.0873
ARG_OF_PERICENTER = 37.8378
MEAN_ANOMALY   = 322.2797

EPHEMERIS_TYPE = 0
CLASSIFICATION_TYPE = U
NORAD_CAT_ID   = 65941
ELEMENT_SET_NO = 999
REV_AT_EPOCH   = 481
BSTAR          = .10464625E-2
MEAN_MOTION_DOT = .70081E-3
MEAN_MOTION_DDOT = 0

CCSDS_OMM_VERS = 2.0
CREATION_DATE  = 
ORIGINATOR     = 

OBJECT_NAME    = BOTAN
OBJECT_ID      = 1998-067XP
CENTER_NAME    = EARTH
REF_FRAME      = TEME
TIME_SYSTEM    = UTC
MEAN_ELEMENT_THEORY = SGP/SGP4

EPOCH          = 2025-11-10T16:07:31.962144
MEAN_MOTION    = 15.55690209
ECCENTRICITY   = .00048579
INCLINATION    = 51.6318
RA_OF_ASC_NODE = 300.4058
ARG_OF_PERICENTER = 51.7839
MEAN_ANOMALY   = 308.3589

EPHEMERIS_TYPE = 0
CLASSIFICATION_TYPE = U
NORAD_CAT_ID   = 65942
ELEMENT_SET_NO = 999
REV_AT_EPOCH   = 486
BSTAR          = .14036038E-2
MEAN_MOTION_DOT = .99177E-3
MEAN_MOTION_DDOT = 0

CCSDS_OMM_VERS = 2.0
CREATION_DATE  = 
ORIGINATOR     = 

OBJECT_NAME    = E-KAGAKU-1
OBJECT_ID      = 1998-067XQ
CENTER_NAME    = EARTH
REF_FRAME      = TEME
TIME_SYSTEM    = UTC
MEAN_ELEMENT_THEORY = SGP/SGP4

EPOCH          = 2025-11-10T08:41:24.679680
MEAN_MOTION    = 15.54388914
ECCENTRICITY   = .00044205
INCLINATION    = 51.6331
RA_OF_ASC_NODE = 302.0857
ARG_OF_PERICENTER = 37.7035
MEAN_ANOMALY   = 322.4265

EPHEMERIS_TYPE = 0
CLASSIFICATION_TYPE = U
NORAD_CAT_ID   = 65943
ELEMENT_SET_NO = 999
REV_AT_EPOCH   = 481
BSTAR          = .10471991E-2
MEAN_MOTION_DOT = .70143E-3
MEAN_MOTION_DDOT = 0

CCSDS_OMM_VERS = 2.0
CREATION_DATE  = 
ORIGINATOR     = 

OBJECT_NAME    = HRC MONOBLOCK CAMERA
OBJECT_ID      = 1998-067XR
CENTER_NAME    = EARTH
REF_FRAME      = TEME
TIME_SYSTEM    = UTC
MEAN_ELEMENT_THEORY = SGP/SGP4

EPOCH          = 2025-11-10T15:56:08.125152
MEAN_MOTION    = 15.51285423
ECCENTRICITY   = .00047253
INCLINATION    = 51.6317
RA_OF_ASC_NODE = 301.0993
ARG_OF_PERICENTER = 52.1599
MEAN_ANOMALY   = 307.9817

EPHEMERIS_TYPE = 0
CLASSIFICATION_TYPE = U
NORAD_CAT_ID   = 66052
ELEMENT_SET_NO = 999
REV_AT_EPOCH   = 385
BSTAR          = .65162174E-3
MEAN_MOTION_DOT = .38666E-3
MEAN_MOTION_DDOT = 0

CCSDS_OMM_VERS = 2.0
CREATION_DATE  = 
ORIGINATOR     = 

OBJECT_NAME    = HTV-X1
OBJECT_ID      = 2025-241A
CENTER_NAME    = EARTH
REF_FRAME      = TEME
TIME_SYSTEM    = UTC
MEAN_ELEMENT_THEORY = SGP/SGP4

EPOCH          = 2025-11-10T19:21:41.474592
MEAN_MOTION    = 15.49512626
ECCENTRICITY   = .00041371
INCLINATION    = 51.6337
RA_OF_ASC_NODE = 300.5531
ARG_OF_PERICENTER = 56.1394
MEAN_ANOMALY   = 303.9988

EPHEMERIS_TYPE = 0
CLASSIFICATION_TYPE = U
NORAD_CAT_ID   = 66174
ELEMENT_SET_NO = 999
REV_AT_EPOCH   = 145
BSTAR          = .20668468E-3
MEAN_MOTION_DOT = .11159E-3
MEAN_MOTION_DDOT = 0

