PROGRESS-MS 32          
1 65586U 25204A   25314.80673003  .00011159  00000+0  20668-3 0  9996
2 65586  51.6337 300.5531 0004137  56.1394 303.9988 15.49512626   277
CYGNUS NG-23            
1 65616U 25208A   25314.80673003  .00011159  00000+0  20668-3 0  9994
2 65616  51.6337 300.5531 0004137  56.1394 303.9988 15.49512626   226
DRAGONFLY               
1 65729U 98067XH  25314.20325840  .00125354  00000+0  14111-2 0  9997
2 65729  51.6309 301.0270 0004472 103.5931 256.5562 15.61642778  8069
1998-067XJ              
1 65730U 98067XJ  25314.37323546  .00402379  00000+0  26808-2 0  9999
2 65730  51.6266 298.3998 0011205  88.9668 271.2615 15.73579673  8118
1998-067XK              
1 65731U 98067XK  25314.36846277  .00089887  00000+0  11217-2 0  9993
2 65731  51.6323 300.6315 0005413  81.8252 278.3355 15.59100647  8088
RSP-03                  
1 65732U 98067XL  25314.67053001  .00110268  00000+0  13043-2 0  9990
2 65732  51.6308 298.8977 0006269  83.6798 276.4909 15.60407504  8144
GHS-01                  
1 65733U 98067XM  25314.19055255  .00142942  00000+0  15480-2 0  9992
2 65733  51.6314 300.9445 0004910 100.8463 259.3084 15.62569682  8073
YOTSUBA-KULOVER         
1 65941U 98067XN  25314.36253054  .00070081  00000+0  10465-2 0  9991
2 65941  51.6325 302.0873 0002626  37.8378 322.2797 15.54390263  4817
BOTAN                   
1 65942U 98067XP  25314.67189771  .00099177  00000+0  14036-2 0  9995
2 65942  51.6318 300.4058 0004857  51.7839 308.3589 15.55690209  4865
E-KAGAKU-1              
1 65943U 98067XQ  25314.36209120  .00070143  00000+0  10472-2 0  9995
2 65943  51.6331 302.0857 0004420  37.7035 322.4265 15.54388914  4813
HRC MONOBLOCK CAMERA    
1 66052U 98067XR  25314.66398293  .00038666  00000+0  65162-3 0  9991
2 66052  51.6317 301.0993 0004725  52.1599 307.9817 15.51285423  3855
HTV-X1                  
1 66174U 25241A   25314.80673003  .00011159  00000+0  20668-3 0  9991
2 66174  51.6337 300.5531 0004137  56.1394 303.9988 15.49512626  1452
